     2.100          NAVIGATION                              RINEX VERSION / TYPE
fic2rin                                 05/27/2013 00:23:15 PGM / RUN BY / DATE
                                                            END OF HEADER
 3 13  5 26 16  0  0.0  .211999285966D-03  .500222085975D-11  .000000000000D+00
     .800000000000D+02 -.564062500000D+02  .454376069444D-08 -.263249852252D+01
    -.292994081974D-05  .162369093159D-01  .125952064991D-04  .515370210838D+04
     .576000000000D+05  .968575477600D-07 -.265442597778D+01 -.726431608200D-07
     .934707801623D+00  .118437500000D+03  .128878783706D+01 -.762888920243D-08
     .468590947265D-09  .100000000000D+01  .174200000000D+04  .000000000000D+00
     .340000000000D+01  .000000000000D+00 -.465661287308D-08  .800000000000D+02
     .504060000000D+05  .400000000000D+01
 4 13  5 26 16  0  0.0  .228588934988D-03  .104591890704D-10  .000000000000D+00
     .120000000000D+02  .137187500000D+02  .546201322906D-08  .388581116523D+00
     .888481736183D-06  .103097638348D-01  .527314841747D-05  .515378042793D+04
     .576000000000D+05 -.173225998878D-06 -.146815839519D+01  .119209289551D-06
     .937278669487D+00  .266406250000D+03  .980520554434D+00 -.858107172180D-08
     .251796202608D-09  .100000000000D+01  .174200000000D+04  .000000000000D+00
     .240000000000D+01  .000000000000D+00 -.605359673500D-08  .120000000000D+02
     .504060000000D+05  .400000000000D+01
 5 13  5 26 16  0  0.0 -.395586714149D-03 -.909494701773D-12  .000000000000D+00
     .490000000000D+02 -.164687500000D+02  .484913055718D-08 -.596604638315D+00
    -.752508640289D-06  .304915523157D-02  .948645174503D-05  .515361931229D+04
     .576000000000D+05  .484287738800D-07 -.419224517744D+00 -.428408384323D-07
     .948943303846D+00  .186531250000D+03  .265119997278D+00 -.811462372094D-08
    -.618240037893D-09  .100000000000D+01  .174200000000D+04  .000000000000D+00
     .240000000000D+01  .000000000000D+00 -.102445483208D-07  .490000000000D+02
     .504060000000D+05  .400000000000D+01
 6 13  5 26 16  0  0.0  .215388834476D-03 -.165982783074D-10  .000000000000D+00
     .780000000000D+02 -.341562500000D+02  .460769192886D-08 -.793086542529D+00
    -.185891985893D-05  .808284280356D-02  .120308250189D-04  .515368106842D+04
     .576000000000D+05 -.726431608200D-07 -.257499860348D+01 -.294297933578D-06
     .941280458486D+00  .140218750000D+03 -.316850955920D+00 -.792175854447D-08
     .450375902821D-09  .100000000000D+01  .174200000000D+04  .000000000000D+00
     .240000000000D+01  .000000000000D+00 -.512227416039D-08  .780000000000D+02
     .504060000000D+05  .400000000000D+01
 7 13  5 26 16  0  0.0  .218104105443D-03  .420641299570D-11  .000000000000D+00
     .620000000000D+02  .478750000000D+02  .474984070707D-08  .210004087143D+01
     .251829624176D-05  .637241126969D-02 -.482425093651D-06  .515368928528D+04
     .576000000000D+05 -.147148966789D-06  .169765803130D+01  .109896063805D-06
     .975122961648D+00  .399562500000D+03 -.293799753550D+01 -.859035782288D-08
     .115719105880D-09  .100000000000D+01  .174200000000D+04  .000000000000D+00
     .240000000000D+01  .000000000000D+00 -.107102096081D-07  .620000000000D+02
     .504060000000D+05  .400000000000D+01
 8 13  5 26 16  0  0.0  .636326149106D-05  .227373675443D-12  .000000000000D+00
     .670000000000D+02  .263125000000D+02  .428553565262D-08  .154116747828D+01
     .152550637722D-05  .129323456204D-01 -.277534127235D-06  .515372038460D+04
     .576000000000D+05 -.260770320892D-07  .178895934403D+01  .195577740669D-06
     .997851832694D+00  .407281250000D+03 -.287544367338D+01 -.842927968476D-08
    -.992898501065D-10  .100000000000D+01  .174200000000D+04  .000000000000D+00
     .340000000000D+01  .000000000000D+00 -.419095158577D-08  .670000000000D+02
     .504060000000D+05  .400000000000D+01
 9 13  5 26 16  0  0.0  .243525020778D-03  .261479726760D-11  .000000000000D+00
     .480000000000D+02  .611875000000D+02  .442697011536D-08  .277338120987D+01
     .320374965668D-05  .174382380210D-01 -.618398189545D-06  .515278763390D+04
     .576000000000D+05  .279396772385D-06  .167442214064D+01 -.173225998878D-06
     .983750753625D+00  .398218750000D+03  .166363310225D+01 -.823891461244D-08
     .621454457501D-10  .100000000000D+01  .174200000000D+04  .000000000000D+00
     .340000000000D+01  .000000000000D+00 -.558793544769D-08  .480000000000D+02
     .504060000000D+05  .400000000000D+01
10 13  5 26 16  0  0.0 -.812243670225D-04 -.136424205266D-11  .000000000000D+00
     .170000000000D+02 -.111562500000D+02  .503378110576D-08 -.371911224990D+00
    -.433996319771D-06  .124100556131D-01  .968761742115D-05  .515363353157D+04
     .576000000000D+05  .614672899246D-07 -.399793520479D+00  .126659870148D-06
     .943786571745D+00  .186062500000D+03  .800888360718D+00 -.833213278106D-08
    -.631812031793D-09  .100000000000D+01  .174200000000D+04  .000000000000D+00
     .240000000000D+01  .000000000000D+00 -.279396772385D-08  .170000000000D+02
     .504060000000D+05  .400000000000D+01
12 13  5 26 16  0  0.0  .135896727443D-03  .204636307899D-11  .000000000000D+00
     .830000000000D+02 -.145343750000D+03  .393730686178D-08  .178498383928D+01
    -.755302608013D-05  .452259625308D-02  .647827982903D-05  .515356967926D+04
     .576000000000D+05 -.298023223877D-07  .275676148472D+01  .335276126862D-07
     .984369060340D+00  .268375000000D+03  .263677905300D+00 -.787711382769D-08
    -.425017703693D-09  .100000000000D+01  .174200000000D+04  .000000000000D+00
     .240000000000D+01  .000000000000D+00 -.121071934700D-07  .830000000000D+02
     .504060000000D+05  .400000000000D+01
14 13  5 26 16  0  0.0  .220744870603D-03 -.227373675443D-12  .000000000000D+00
     .550000000000D+02  .132093750000D+03  .401909598291D-08 -.160747747766D+01
     .700727105141D-05  .690755946562D-02  .910460948944D-05  .515375654602D+04
     .576000000000D+05  .121071934700D-06  .700878791123D+00  .689178705215D-07
     .974499803897D+00  .211187500000D+03 -.203466811100D+01 -.774460830831D-08
     .200722646618D-09  .100000000000D+01  .174200000000D+04  .000000000000D+00
     .240000000000D+01  .000000000000D+00 -.884756445885D-08  .550000000000D+02
     .504060000000D+05  .400000000000D+01
15 13  5 26 16  0  0.0 -.120700802654D-03 -.159161572810D-11  .000000000000D+00
     .620000000000D+02  .134437500000D+03  .476234122777D-08 -.213306524204D+01
     .676326453686D-05  .540546805132D-02  .107288360596D-04  .515376897621D+04
     .576000000000D+05 -.167638063431D-07  .601035928359D+00 -.104308128357D-06
     .941197012176D+00  .164093750000D+03  .167322886470D+00 -.808105089392D-08
     .131434046184D-09  .100000000000D+01  .174200000000D+04  .000000000000D+00
     .240000000000D+01  .000000000000D+00 -.102445483208D-07  .620000000000D+02
     .504060000000D+05  .400000000000D+01
16 13  5 26 16  0  0.0 -.251855235547D-03  .227373675443D-12  .000000000000D+00
     .610000000000D+02 -.142625000000D+03  .392266339468D-08 -.411658914012D+00
    -.756233930588D-05  .714960205369D-02  .743009150028D-05  .515364588356D+04
     .576000000000D+05  .104308128357D-06  .277513601667D+01  .186264514923D-07
     .985077090746D+00  .248468750000D+03  .101168835620D+00 -.791782980939D-08
    -.415374444870D-09  .100000000000D+01  .174200000000D+04  .000000000000D+00
     .340000000000D+01  .000000000000D+00 -.102445483208D-07  .610000000000D+02
     .504060000000D+05  .400000000000D+01
17 13  5 26 16  0  0.0  .155288726091D-04 -.386535248253D-11  .000000000000D+00
     .410000000000D+02 -.372812500000D+02  .410659962779D-08 -.142687322462D+01
    -.195205211639D-05  .834496971220D-02  .123362988234D-04  .515363613319D+04
     .576000000000D+05  .277534127235D-06 -.247187136236D+01  .670552253723D-07
     .965526893454D+00  .145468750000D+03 -.219130210899D+01 -.762424615188D-08
     .530022077547D-09  .100000000000D+01  .174200000000D+04  .000000000000D+00
     .240000000000D+01  .000000000000D+00 -.102445483208D-07  .410000000000D+02
     .504060000000D+05  .400000000000D+01
18 13  5 26 16  0  0.0  .255571212620D-03  .181898940355D-11  .000000000000D+00
     .450000000000D+02 -.187812500000D+02  .543665502993D-08  .664298679621D-01
    -.955536961555D-06  .143458481180D-01  .938214361668D-05  .515360141373D+04
     .576000000000D+05 -.163912773132D-06 -.416610044681D+00  .227242708206D-06
     .927548204472D+00  .185312500000D+03 -.210611319129D+01 -.857535719805D-08
    -.572166690182D-09  .100000000000D+01  .174200000000D+04  .000000000000D+00
     .240000000000D+01  .000000000000D+00 -.111758708954D-07  .450000000000D+02
     .504060000000D+05  .400000000000D+01
20 13  5 26 16  0  0.0  .100110191852D-03  .204636307899D-11  .000000000000D+00
     .680000000000D+02 -.160937500000D+02  .538665294715D-08  .589908328301D+00
    -.107474625111D-05  .539932621177D-02  .900402665138D-05  .515373394012D+04
     .576000000000D+05 -.931322574615D-08 -.470036715556D+00  .409781932831D-07
     .928253003292D+00  .187406250000D+03  .129451674422D+01 -.843427989304D-08
    -.627883296717D-09  .100000000000D+01  .174200000000D+04  .000000000000D+00
     .240000000000D+01  .000000000000D+00 -.791624188423D-08  .680000000000D+02
     .504060000000D+05  .400000000000D+01
21 13  5 26 16  0  0.0 -.299669802189D-03 -.216004991671D-11  .000000000000D+00
     .760000000000D+02  .168437500000D+02  .572095258635D-08  .112489848808D+01
     .912696123123D-06  .203836234286D-01  .562705099583D-05  .515367360115D+04
     .576000000000D+05 -.340864062309D-06 -.146451666544D+01  .102445483208D-06
     .931078135096D+00  .261718750000D+03 -.213410109776D+01 -.888251284946D-08
     .839320675361D-10  .100000000000D+01  .174200000000D+04  .000000000000D+00
     .240000000000D+01  .000000000000D+00 -.111758708954D-07  .760000000000D+02
     .504060000000D+05  .400000000000D+01
